[{"OBJECT_NAME":"STARLINK-5729","OBJECT_ID":"2023-020AD","EPOCH":"2026-03-09T22:00:01.999584","MEAN_MOTION":15.10104174,"ECCENTRICITY":9.821e-5,"INCLINATION":42.9997,"RA_OF_ASC_NODE":2.8491,"ARG_OF_PERICENTER":242.2129,"MEAN_ANOMALY":346.1294,"EPHEMERIS_TYPE":0,"CLASSIFICATION_TYPE":"U","NORAD_CAT_ID":55596,"ELEMENT_SET_NO":999,"REV_AT_EPOCH":577,"BSTAR":0.073258172,"MEAN_MOTION_DOT":0.01319331,"MEAN_MOTION_DDOT":0},{"OBJECT_NAME":"LOBACHEVSKY (RS83S)","OBJECT_ID":"2025-313AN","EPOCH":"2026-03-09T21:53:46.312512","MEAN_MOTION":15.21792932,"ECCENTRICITY":0.0010507,"INCLINATION":97.399,"RA_OF_ASC_NODE":145.2052,"ARG_OF_PERICENTER":356.6168,"MEAN_ANOMALY":3.4996,"EPHEMERIS_TYPE":0,"CLASSIFICATION_TYPE":"U","NORAD_CAT_ID":67284,"ELEMENT_SET_NO":999,"REV_AT_EPOCH":1085,"BSTAR":0.00030825721,"MEAN_MOTION_DOT":6.937e-5,"MEAN_MOTION_DDOT":0}]
